QIANFAN-33              
1 61566U 24185Q   26001.17797162  .00000625  00000+0  44198-3 0  9994
2 61566  88.9790  76.6450 0005123 259.6111 100.4489 13.96570008 71879
QIANFAN-34              
1 61567U 24185R   26001.20637784  .00000720  00000+0  46088-3 0  9998
2 61567  88.9767  76.1795 0003378 266.4937  93.5857 14.02326064 72087
QIANFAN-35              
1 61568U 24185S   26001.17789127  .00001317  00000+0  52535-3 0  9991
2 61568  88.9791  74.6018 0005618 202.8557 157.2388 14.28006215 72951
QIANFAN-36              
1 61569U 24185T   26001.15434989  .00000148  00000+0  19535-3 0  9997
2 61569  88.9776  79.0263 0005422   5.6847 354.4367 13.55595034 70553
QIANFAN-37              
1 62238U 24232B   26001.17517306  .00000115  00000+0  15906-3 0  9993
2 62238  89.0002  39.3669 0002440  84.0254 276.1175 13.50981361101795
QIANFAN-38              
1 62239U 24232C   26001.12579640  .00000117  00000+0  16162-3 0  9995
2 62239  89.0009  39.2889 0016095 134.6383 225.6083 13.50979053101840
QIANFAN-39              
1 62240U 24232D   26001.14996889  .00000484  00000+0  19892-3 0  9997
2 62240  89.0000  35.0883 0016769  23.1435 337.0510 14.25405971104155
QIANFAN-40              
1 62241U 24232E   26001.15871401  .00000118  00000+0  16400-3 0  9997
2 62241  89.0036  38.8755 0014944 141.4264 218.7958 13.50979121102217
